<?xml version="1.0" encoding="UTF-8"?>
<!-- track-length = 29406 filtered ascend = 153 plain-ascend = -15 cost=79397 energy=0.1kwh time=1h 29m 24s -->
<gpx
 xmlns="http://www.topografix.com/GPX/1/1"
 xmlns:xsi="http://www.w3.org/2001/XMLSchema-instance"
 xsi:schemaLocation="http://www.topografix.com/GPX/1/1 http://www.topografix.com/GPX/1/1/gpx.xsd"
 version="1.1"
 creator="OsmAndRouter">
 <wpt lat="56.18257998363937" lon="10.164928436279299"><name>from</name><type>from</type></wpt>
 <wpt lat="56.275500857450474" lon="10.071453452110292"><name>via A</name><type>via</type></wpt>
 <wpt lat="56.2642214071261" lon="10.145505713937842"><name>via B</name><type>via</type></wpt>
 <wpt lat="56.20030261428886" lon="10.166102621459544"><name>to</name><type>to</type></wpt>
 <rte>
  <rtept lat="56.182567" lon="10.165021">
   <desc>start</desc>
   <extensions>
    <time>8</time>
    <offset>0</offset>
   </extensions>
  </rtept>
  <rtept lat="56.182159" lon="10.164952">
   <desc>right</desc>
   <extensions>
    <time>9</time>
    <turn>TR</turn>
    <turn-angle>90</turn-angle>
    <offset>3</offset>
   </extensions>
  </rtept>
  <rtept lat="56.182272" lon="10.164073">
   <desc>right</desc>
   <extensions>
    <time>16</time>
    <turn>TR</turn>
    <turn-angle>89</turn-angle>
    <offset>4</offset>
   </extensions>
  </rtept>
  <rtept lat="56.183176" lon="10.16446">
   <desc>right</desc>
   <extensions>
    <time>43</time>
    <turn>TR</turn>
    <turn-angle>61</turn-angle>
    <offset>8</offset>
   </extensions>
  </rtept>
  <rtept lat="56.183479" lon="10.167832">
   <desc>left</desc>
   <extensions>
    <time>56</time>
    <turn>TL</turn>
    <turn-angle>-88</turn-angle>
    <offset>21</offset>
   </extensions>
  </rtept>
  <rtept lat="56.185839" lon="10.164059">
   <desc>left</desc>
   <extensions>
    <time>102</time>
    <turn>TL</turn>
    <turn-angle>-79</turn-angle>
    <offset>29</offset>
   </extensions>
  </rtept>
  <rtept lat="56.18717" lon="10.155757">
   <desc>right</desc>
   <extensions>
    <time>32</time>
    <turn>TR</turn>
    <turn-angle>87</turn-angle>
    <offset>50</offset>
   </extensions>
  </rtept>
  <rtept lat="56.189566" lon="10.157271">
   <desc>slight left</desc>
   <extensions>
    <time>411</time>
    <turn>TSLL</turn>
    <turn-angle>-28</turn-angle>
    <offset>60</offset>
   </extensions>
  </rtept>
  <rtept lat="56.207292" lon="10.131291">
   <desc>slight right</desc>
   <extensions>
    <time>26</time>
    <turn>TSLR</turn>
    <turn-angle>29</turn-angle>
    <offset>158</offset>
   </extensions>
  </rtept>
  <rtept lat="56.208081" lon="10.134012">
   <desc>slight left</desc>
   <extensions>
    <time>56</time>
    <turn>TSLL</turn>
    <turn-angle>-20</turn-angle>
    <offset>164</offset>
   </extensions>
  </rtept>
  <rtept lat="56.211605" lon="10.135615">
   <desc>straight</desc>
   <extensions>
    <time>167</time>
    <turn>C</turn>
    <turn-angle>20</turn-angle>
    <offset>178</offset>
   </extensions>
  </rtept>
  <rtept lat="56.215276" lon="10.138653">
   <desc>right</desc>
   <extensions>
    <time>4</time>
    <turn>TR</turn>
    <turn-angle>82</turn-angle>
    <offset>202</offset>
   </extensions>
  </rtept>
  <rtept lat="56.215229" lon="10.13878">
   <desc>left</desc>
   <extensions>
    <time>3</time>
    <turn>TL</turn>
    <turn-angle>-90</turn-angle>
    <offset>203</offset>
   </extensions>
  </rtept>
  <rtept lat="56.215281" lon="10.13884">
   <desc>straight</desc>
   <extensions>
    <time>4</time>
    <turn>C</turn>
    <turn-angle>-1</turn-angle>
    <offset>205</offset>
   </extensions>
  </rtept>
  <rtept lat="56.215366" lon="10.138934">
   <desc>left</desc>
   <extensions>
    <time>112</time>
    <turn>TL</turn>
    <turn-angle>-90</turn-angle>
    <offset>206</offset>
   </extensions>
  </rtept>
  <rtept lat="56.218059" lon="10.131712">
   <desc>slight right</desc>
   <extensions>
    <time>397</time>
    <turn>TSLR</turn>
    <turn-angle>6</turn-angle>
    <offset>216</offset>
   </extensions>
  </rtept>
  <rtept lat="56.227124" lon="10.115218">
   <desc>straight</desc>
   <extensions>
    <time>121</time>
    <turn>C</turn>
    <turn-angle>5</turn-angle>
    <offset>241</offset>
   </extensions>
  </rtept>
  <rtept lat="56.230032" lon="10.110494">
   <desc>right</desc>
   <extensions>
    <time>2</time>
    <turn>TR</turn>
    <turn-angle>85</turn-angle>
    <offset>254</offset>
   </extensions>
  </rtept>
  <rtept lat="56.230089" lon="10.110549">
   <desc>left</desc>
   <extensions>
    <time>67</time>
    <turn>TL</turn>
    <turn-angle>-83</turn-angle>
    <offset>255</offset>
   </extensions>
  </rtept>
  <rtept lat="56.23252" lon="10.103216">
   <desc>keep left</desc>
   <extensions>
    <time>1</time>
    <turn>KL</turn>
    <turn-angle>-6</turn-angle>
    <offset>266</offset>
   </extensions>
  </rtept>
  <rtept lat="56.232557" lon="10.103079">
   <desc>straight</desc>
   <extensions>
    <time>123</time>
    <turn>C</turn>
    <turn-angle>2</turn-angle>
    <offset>267</offset>
   </extensions>
  </rtept>
  <rtept lat="56.237519" lon="10.090211">
   <desc>straight</desc>
   <extensions>
    <time>66</time>
    <turn>C</turn>
    <turn-angle>0</turn-angle>
    <offset>286</offset>
   </extensions>
  </rtept>
  <rtept lat="56.240449" lon="10.08473">
   <desc>straight</desc>
   <extensions>
    <time>247</time>
    <turn>C</turn>
    <turn-angle>-1</turn-angle>
    <offset>293</offset>
   </extensions>
  </rtept>
  <rtept lat="56.253351" lon="10.068508">
   <desc>slight right</desc>
   <extensions>
    <time>86</time>
    <turn>TSLR</turn>
    <turn-angle>41</turn-angle>
    <offset>334</offset>
   </extensions>
  </rtept>
  <rtept lat="56.256289" lon="10.071025">
   <desc>straight</desc>
   <extensions>
    <time>19</time>
    <turn>C</turn>
    <turn-angle>0</turn-angle>
    <offset>354</offset>
   </extensions>
  </rtept>
  <rtept lat="56.257193" lon="10.070866">
   <desc>keep left</desc>
   <extensions>
    <time>52</time>
    <turn>KL</turn>
    <turn-angle>0</turn-angle>
    <offset>355</offset>
   </extensions>
  </rtept>
  <rtept lat="56.259639" lon="10.070378">
   <desc>straight</desc>
   <extensions>
    <time>72</time>
    <turn>C</turn>
    <turn-angle>-3</turn-angle>
    <offset>358</offset>
   </extensions>
  </rtept>
  <rtept lat="56.262891" lon="10.06446">
   <desc>slight right</desc>
   <extensions>
    <time>87</time>
    <turn>TSLR</turn>
    <turn-angle>39</turn-angle>
    <offset>379</offset>
   </extensions>
  </rtept>
  <rtept lat="56.265627" lon="10.062085">
   <desc>left</desc>
   <extensions>
    <time>2</time>
    <turn>TL</turn>
    <turn-angle>-96</turn-angle>
    <offset>403</offset>
   </extensions>
  </rtept>
  <rtept lat="56.265703" lon="10.062042">
   <desc>slight right</desc>
   <extensions>
    <time>68</time>
    <turn>TSLR</turn>
    <turn-angle>58</turn-angle>
    <offset>406</offset>
   </extensions>
  </rtept>
  <rtept lat="56.268964" lon="10.06578">
   <desc>keep left</desc>
   <extensions>
    <time>27</time>
    <turn>KL</turn>
    <turn-angle>-20</turn-angle>
    <offset>420</offset>
   </extensions>
  </rtept>
  <rtept lat="56.270361" lon="10.0658">
   <desc>slight left</desc>
   <extensions>
    <time>9</time>
    <turn>TSLL</turn>
    <turn-angle>-37</turn-angle>
    <offset>431</offset>
   </extensions>
  </rtept>
  <rtept lat="56.270549" lon="10.06527">
   <desc>right</desc>
   <extensions>
    <time>156</time>
    <turn>TR</turn>
    <turn-angle>89</turn-angle>
    <offset>434</offset>
   </extensions>
  </rtept>
  <rtept lat="56.275476" lon="10.071464">
   <desc>left</desc>
   <extensions>
    <time>1</time>
    <turn>TL</turn>
    <turn-angle>-92</turn-angle>
    <offset>458</offset>
   </extensions>
  </rtept>
  <rtept lat="56.275476" lon="10.071464">
   <desc>left</desc>
   <extensions>
    <time>51</time>
    <turn>TL</turn>
    <turn-angle>-86</turn-angle>
    <offset>460</offset>
   </extensions>
  </rtept>
  <rtept lat="56.275622" lon="10.077352">
   <desc>slight right</desc>
   <extensions>
    <time>2</time>
    <turn>TSLR</turn>
    <turn-angle>30</turn-angle>
    <offset>478</offset>
   </extensions>
  </rtept>
  <rtept lat="56.275486" lon="10.077484">
   <desc>right</desc>
   <extensions>
    <time>27</time>
    <turn>TR</turn>
    <turn-angle>64</turn-angle>
    <offset>483</offset>
   </extensions>
  </rtept>
  <rtept lat="56.273604" lon="10.079005">
   <desc>left</desc>
   <extensions>
    <time>422</time>
    <turn>TL</turn>
    <turn-angle>-64</turn-angle>
    <offset>493</offset>
   </extensions>
  </rtept>
  <rtept lat="56.269179" lon="10.098548">
   <desc>left</desc>
   <extensions>
    <time>95</time>
    <turn>TL</turn>
    <turn-angle>-61</turn-angle>
    <offset>531</offset>
   </extensions>
  </rtept>
  <rtept lat="56.268551" lon="10.103408">
   <desc>right</desc>
   <extensions>
    <time>517</time>
    <turn>TR</turn>
    <turn-angle>61</turn-angle>
    <offset>544</offset>
   </extensions>
  </rtept>
  <rtept lat="56.270953" lon="10.151752">
   <desc>right</desc>
   <extensions>
    <time>106</time>
    <turn>TR</turn>
    <turn-angle>99</turn-angle>
    <offset>583</offset>
   </extensions>
  </rtept>
  <rtept lat="56.265785" lon="10.152714">
   <desc>right</desc>
   <extensions>
    <time>160</time>
    <turn>TR</turn>
    <turn-angle>92</turn-angle>
    <offset>588</offset>
   </extensions>
  </rtept>
  <rtept lat="56.265785" lon="10.152714">
   <desc>right</desc>
   <extensions>
    <time>326</time>
    <turn>TR</turn>
    <turn-angle>87</turn-angle>
    <offset>592</offset>
   </extensions>
  </rtept>
  <rtept lat="56.255237" lon="10.154643">
   <desc>straight</desc>
   <extensions>
    <time>125</time>
    <turn>C</turn>
    <turn-angle>0</turn-angle>
    <offset>604</offset>
   </extensions>
  </rtept>
  <rtept lat="56.248973" lon="10.156135">
   <desc>straight</desc>
   <extensions>
    <time>196</time>
    <turn>C</turn>
    <turn-angle>0</turn-angle>
    <offset>620</offset>
   </extensions>
  </rtept>
  <rtept lat="56.238491" lon="10.159089">
   <desc>straight</desc>
   <extensions>
    <time>242</time>
    <turn>C</turn>
    <turn-angle>0</turn-angle>
    <offset>630</offset>
   </extensions>
  </rtept>
  <rtept lat="56.224446" lon="10.1628">
   <desc>straight</desc>
   <extensions>
    <time>32</time>
    <turn>C</turn>
    <turn-angle>-2</turn-angle>
    <offset>634</offset>
   </extensions>
  </rtept>
  <rtept lat="56.222091" lon="10.164006">
   <desc>straight</desc>
   <extensions>
    <time>41</time>
    <turn>C</turn>
    <turn-angle>-7</turn-angle>
    <offset>648</offset>
   </extensions>
  </rtept>
  <rtept lat="56.218143" lon="10.167066">
   <desc>right</desc>
   <extensions>
    <time>19</time>
    <turn>TR</turn>
    <turn-angle>84</turn-angle>
    <offset>663</offset>
   </extensions>
  </rtept>
  <rtept lat="56.217493" lon="10.164309">
   <desc>left</desc>
   <extensions>
    <time>1</time>
    <turn>TL</turn>
    <turn-angle>-90</turn-angle>
    <offset>669</offset>
   </extensions>
  </rtept>
  <rtept lat="56.217442" lon="10.164342">
   <desc>slight left</desc>
   <extensions>
    <time>1</time>
    <turn>TSLL</turn>
    <turn-angle>-38</turn-angle>
    <offset>670</offset>
   </extensions>
  </rtept>
  <rtept lat="56.217356" lon="10.164497">
   <desc>straight</desc>
   <extensions>
    <time>2</time>
    <turn>C</turn>
    <turn-angle>2</turn-angle>
    <offset>675</offset>
   </extensions>
  </rtept>
  <rtept lat="56.217242" lon="10.164722">
   <desc>slight right</desc>
   <extensions>
    <time>346</time>
    <turn>TSLR</turn>
    <turn-angle>42</turn-angle>
    <offset>680</offset>
   </extensions>
  </rtept>
  <rtept lat="56.200316" lon="10.165816">
   <desc>destination</desc>
   <extensions>
    <time>0</time>
    <offset>729</offset>
   </extensions>
  </rtept>
 </rte>
 <trk>
  <name>Brendstrup - Aarhus</name>
  <link href="https://bikerouter.de/#map=12/56.2426/10.1040/standard,route-quality&amp;lonlats=10.164928,56.18258;10.071453,56.275501;10.145506,56.264221;10.166103,56.200303">
   <text>bikerouter.de</text>
  </link>
  <trkseg>
   <trkpt lat="56.182567" lon="10.165021"><ele>61</ele></trkpt>
   <trkpt lat="56.182485" lon="10.164989"><ele>61</ele></trkpt>
   <trkpt lat="56.182425" lon="10.165058"><ele>61</ele></trkpt>
   <trkpt lat="56.182159" lon="10.164952"><ele>61</ele></trkpt>
   <trkpt lat="56.182272" lon="10.164073"><ele>60.75</ele></trkpt>
   <trkpt lat="56.182396" lon="10.164121"><ele>61</ele></trkpt>
   <trkpt lat="56.182634" lon="10.164212"><ele>61</ele></trkpt>
   <trkpt lat="56.183131" lon="10.16441"><ele>60.25</ele></trkpt>
   <trkpt lat="56.183176" lon="10.16446"><ele>60</ele></trkpt>
   <trkpt lat="56.183196" lon="10.164582"><ele>59.75</ele></trkpt>
   <trkpt lat="56.183146" lon="10.166427"><ele>64.25</ele></trkpt>
   <trkpt lat="56.183136" lon="10.166624"><ele>64.5</ele></trkpt>
   <trkpt lat="56.183132" lon="10.166709"><ele>64.5</ele></trkpt>
   <trkpt lat="56.183121" lon="10.166933"><ele>64.75</ele></trkpt>
   <trkpt lat="56.183128" lon="10.167055"><ele>64.5</ele></trkpt>
   <trkpt lat="56.183144" lon="10.167172"><ele>64.25</ele></trkpt>
   <trkpt lat="56.183166" lon="10.167279"><ele>64.25</ele></trkpt>
   <trkpt lat="56.18322" lon="10.167433"><ele>65</ele></trkpt>
   <trkpt lat="56.183266" lon="10.167517"><ele>65.25</ele></trkpt>
   <trkpt lat="56.183399" lon="10.167722"><ele>65.5</ele></trkpt>
   <trkpt lat="56.183443" lon="10.167783"><ele>65.5</ele></trkpt>
   <trkpt lat="56.183479" lon="10.167832"><ele>65.25</ele></trkpt>
   <trkpt lat="56.183557" lon="10.167657"><ele>64.75</ele></trkpt>
   <trkpt lat="56.183589" lon="10.167592"><ele>64.25</ele></trkpt>
   <trkpt lat="56.183932" lon="10.166912"><ele>63.5</ele></trkpt>
   <trkpt lat="56.184117" lon="10.166574"><ele>62.75</ele></trkpt>
   <trkpt lat="56.184718" lon="10.165591"><ele>61</ele></trkpt>
   <trkpt lat="56.185093" lon="10.16503"><ele>60.75</ele></trkpt>
   <trkpt lat="56.185423" lon="10.164582"><ele>58.5</ele></trkpt>
   <trkpt lat="56.185839" lon="10.164059"><ele>56.75</ele></trkpt>
   <trkpt lat="56.185827" lon="10.164027"><ele>57</ele></trkpt>
   <trkpt lat="56.185775" lon="10.163824"><ele>57</ele></trkpt>
   <trkpt lat="56.185744" lon="10.163639"><ele>57.25</ele></trkpt>
   <trkpt lat="56.185737" lon="10.163492"><ele>57</ele></trkpt>
   <trkpt lat="56.185748" lon="10.163333"><ele>56.5</ele></trkpt>
   <trkpt lat="56.185773" lon="10.163158"><ele>56.25</ele></trkpt>
   <trkpt lat="56.185814" lon="10.163014"><ele>55.75</ele></trkpt>
   <trkpt lat="56.185863" lon="10.162884"><ele>55</ele></trkpt>
   <trkpt lat="56.186236" lon="10.162024"><ele>55.75</ele></trkpt>
   <trkpt lat="56.186314" lon="10.161757"><ele>56.5</ele></trkpt>
   <trkpt lat="56.186379" lon="10.161437"><ele>57.75</ele></trkpt>
   <trkpt lat="56.18651" lon="10.160415"><ele>60</ele></trkpt>
   <trkpt lat="56.186648" lon="10.159599"><ele>61.75</ele></trkpt>
   <trkpt lat="56.186697" lon="10.159223"><ele>62</ele></trkpt>
   <trkpt lat="56.186742" lon="10.158705"><ele>61</ele></trkpt>
   <trkpt lat="56.186822" lon="10.157438"><ele>61.25</ele></trkpt>
   <trkpt lat="56.18685" lon="10.15717"><ele>60.75</ele></trkpt>
   <trkpt lat="56.186891" lon="10.156894"><ele>60.75</ele></trkpt>
   <trkpt lat="56.186941" lon="10.156647"><ele>60.75</ele></trkpt>
   <trkpt lat="56.187" lon="10.156401"><ele>60.75</ele></trkpt>
   <trkpt lat="56.18717" lon="10.155757"><ele>60</ele></trkpt>
   <trkpt lat="56.18791" lon="10.156312"><ele>58</ele></trkpt>
   <trkpt lat="56.188264" lon="10.156594"><ele>57.25</ele></trkpt>
   <trkpt lat="56.188535" lon="10.156808"><ele>56.5</ele></trkpt>
   <trkpt lat="56.188786" lon="10.157047"><ele>55.75</ele></trkpt>
   <trkpt lat="56.18909" lon="10.1573"><ele>54.5</ele></trkpt>
   <trkpt lat="56.189259" lon="10.157379"><ele>53.75</ele></trkpt>
   <trkpt lat="56.189331" lon="10.157403"><ele>53.75</ele></trkpt>
   <trkpt lat="56.189458" lon="10.157394"><ele>53.75</ele></trkpt>
   <trkpt lat="56.189517" lon="10.157354"><ele>53.75</ele></trkpt>
   <trkpt lat="56.189566" lon="10.157271"><ele>53.75</ele></trkpt>
   <trkpt lat="56.189599" lon="10.157094"><ele>54</ele></trkpt>
   <trkpt lat="56.189652" lon="10.156701"><ele>54.75</ele></trkpt>
   <trkpt lat="56.189678" lon="10.15651"><ele>55</ele></trkpt>
   <trkpt lat="56.189758" lon="10.155924"><ele>56</ele></trkpt>
   <trkpt lat="56.189785" lon="10.155727"><ele>56.25</ele></trkpt>
   <trkpt lat="56.189791" lon="10.15568"><ele>56.5</ele></trkpt>
   <trkpt lat="56.189833" lon="10.155372"><ele>57</ele></trkpt>
   <trkpt lat="56.189857" lon="10.155117"><ele>57.25</ele></trkpt>
   <trkpt lat="56.189837" lon="10.154166"><ele>59</ele></trkpt>
   <trkpt lat="56.189851" lon="10.154021"><ele>59.25</ele></trkpt>
   <trkpt lat="56.189881" lon="10.153879"><ele>59.25</ele></trkpt>
   <trkpt lat="56.189947" lon="10.15371"><ele>59.5</ele></trkpt>
   <trkpt lat="56.190268" lon="10.153117"><ele>59</ele></trkpt>
   <trkpt lat="56.190365" lon="10.152948"><ele>58.75</ele></trkpt>
   <trkpt lat="56.1905" lon="10.152696"><ele>59</ele></trkpt>
   <trkpt lat="56.190589" lon="10.152488"><ele>58.75</ele></trkpt>
   <trkpt lat="56.190643" lon="10.152329"><ele>58.75</ele></trkpt>
   <trkpt lat="56.190704" lon="10.15208"><ele>59</ele></trkpt>
   <trkpt lat="56.190784" lon="10.151679"><ele>59</ele></trkpt>
   <trkpt lat="56.190868" lon="10.151339"><ele>58</ele></trkpt>
   <trkpt lat="56.190893" lon="10.151239"><ele>58</ele></trkpt>
   <trkpt lat="56.191013" lon="10.150841"><ele>57.25</ele></trkpt>
   <trkpt lat="56.191069" lon="10.150687"><ele>57.5</ele></trkpt>
   <trkpt lat="56.191149" lon="10.150543"><ele>57.75</ele></trkpt>
   <trkpt lat="56.191252" lon="10.150407"><ele>57.25</ele></trkpt>
   <trkpt lat="56.191371" lon="10.150269"><ele>57</ele></trkpt>
   <trkpt lat="56.191528" lon="10.150125"><ele>56.25</ele></trkpt>
   <trkpt lat="56.191652" lon="10.150028"><ele>56</ele></trkpt>
   <trkpt lat="56.191877" lon="10.149846"><ele>55.5</ele></trkpt>
   <trkpt lat="56.191981" lon="10.149742"><ele>55.5</ele></trkpt>
   <trkpt lat="56.192056" lon="10.149642"><ele>55.25</ele></trkpt>
   <trkpt lat="56.192159" lon="10.149463"><ele>55</ele></trkpt>
   <trkpt lat="56.192232" lon="10.14932"><ele>54.75</ele></trkpt>
   <trkpt lat="56.192474" lon="10.14893"><ele>54.75</ele></trkpt>
   <trkpt lat="56.192676" lon="10.148677"><ele>54</ele></trkpt>
   <trkpt lat="56.192787" lon="10.1486"><ele>54</ele></trkpt>
   <trkpt lat="56.192874" lon="10.148564"><ele>54</ele></trkpt>
   <trkpt lat="56.193042" lon="10.148519"><ele>54</ele></trkpt>
   <trkpt lat="56.193279" lon="10.148434"><ele>54</ele></trkpt>
   <trkpt lat="56.193518" lon="10.148343"><ele>53.75</ele></trkpt>
   <trkpt lat="56.193896" lon="10.148175"><ele>53.5</ele></trkpt>
   <trkpt lat="56.194083" lon="10.148039"><ele>54</ele></trkpt>
   <trkpt lat="56.194159" lon="10.147932"><ele>54</ele></trkpt>
   <trkpt lat="56.194224" lon="10.147797"><ele>54</ele></trkpt>
   <trkpt lat="56.194293" lon="10.147606"><ele>54.25</ele></trkpt>
   <trkpt lat="56.194557" lon="10.146812"><ele>54.75</ele></trkpt>
   <trkpt lat="56.195094" lon="10.145407"><ele>55.5</ele></trkpt>
   <trkpt lat="56.195338" lon="10.144724"><ele>54.75</ele></trkpt>
   <trkpt lat="56.195582" lon="10.144076"><ele>54.75</ele></trkpt>
   <trkpt lat="56.195668" lon="10.143854"><ele>54.5</ele></trkpt>
   <trkpt lat="56.195721" lon="10.143742"><ele>54.5</ele></trkpt>
   <trkpt lat="56.195763" lon="10.143655"><ele>54.75</ele></trkpt>
   <trkpt lat="56.195867" lon="10.143475"><ele>54.75</ele></trkpt>
   <trkpt lat="56.196228" lon="10.142915"><ele>55.75</ele></trkpt>
   <trkpt lat="56.196685" lon="10.142158"><ele>56</ele></trkpt>
   <trkpt lat="56.196827" lon="10.141912"><ele>56</ele></trkpt>
   <trkpt lat="56.197766" lon="10.140512"><ele>55.75</ele></trkpt>
   <trkpt lat="56.197838" lon="10.140388"><ele>55.75</ele></trkpt>
   <trkpt lat="56.19838" lon="10.139496"><ele>55.5</ele></trkpt>
   <trkpt lat="56.198564" lon="10.139222"><ele>55</ele></trkpt>
   <trkpt lat="56.199417" lon="10.138102"><ele>54</ele></trkpt>
   <trkpt lat="56.199591" lon="10.13784"><ele>53.5</ele></trkpt>
   <trkpt lat="56.199743" lon="10.137559"><ele>54</ele></trkpt>
   <trkpt lat="56.199878" lon="10.137271"><ele>53.5</ele></trkpt>
   <trkpt lat="56.200129" lon="10.13662"><ele>52.75</ele></trkpt>
   <trkpt lat="56.200278" lon="10.136322"><ele>52.75</ele></trkpt>
   <trkpt lat="56.200421" lon="10.136063"><ele>52</ele></trkpt>
   <trkpt lat="56.200668" lon="10.135643"><ele>51.5</ele></trkpt>
   <trkpt lat="56.20088" lon="10.135313"><ele>51</ele></trkpt>
   <trkpt lat="56.201242" lon="10.134715"><ele>50.25</ele></trkpt>
   <trkpt lat="56.201377" lon="10.134565"><ele>50.25</ele></trkpt>
   <trkpt lat="56.201543" lon="10.134426"><ele>49.75</ele></trkpt>
   <trkpt lat="56.20174" lon="10.134297"><ele>49.5</ele></trkpt>
   <trkpt lat="56.201949" lon="10.134175"><ele>50</ele></trkpt>
   <trkpt lat="56.203326" lon="10.133572"><ele>46.75</ele></trkpt>
   <trkpt lat="56.204037" lon="10.133168"><ele>44.75</ele></trkpt>
   <trkpt lat="56.204322" lon="10.132925"><ele>43.5</ele></trkpt>
   <trkpt lat="56.204614" lon="10.132627"><ele>42.25</ele></trkpt>
   <trkpt lat="56.204756" lon="10.132502"><ele>42</ele></trkpt>
   <trkpt lat="56.205027" lon="10.132362"><ele>41.75</ele></trkpt>
   <trkpt lat="56.205121" lon="10.132341"><ele>41</ele></trkpt>
   <trkpt lat="56.205314" lon="10.132261"><ele>39.5</ele></trkpt>
   <trkpt lat="56.205406" lon="10.132207"><ele>39</ele></trkpt>
   <trkpt lat="56.205512" lon="10.132123"><ele>38.25</ele></trkpt>
   <trkpt lat="56.20561" lon="10.132024"><ele>37.5</ele></trkpt>
   <trkpt lat="56.205682" lon="10.131938"><ele>37</ele></trkpt>
   <trkpt lat="56.205748" lon="10.131824"><ele>36.25</ele></trkpt>
   <trkpt lat="56.205925" lon="10.131565"><ele>35.5</ele></trkpt>
   <trkpt lat="56.205976" lon="10.131506"><ele>35.25</ele></trkpt>
   <trkpt lat="56.206026" lon="10.131463"><ele>35.25</ele></trkpt>
   <trkpt lat="56.206084" lon="10.131439"><ele>35</ele></trkpt>
   <trkpt lat="56.206284" lon="10.131369"><ele>33.75</ele></trkpt>
   <trkpt lat="56.206642" lon="10.131265"><ele>33</ele></trkpt>
   <trkpt lat="56.207017" lon="10.13121"><ele>31.25</ele></trkpt>
   <trkpt lat="56.207111" lon="10.131204"><ele>31</ele></trkpt>
   <trkpt lat="56.207202" lon="10.131225"><ele>30.5</ele></trkpt>
   <trkpt lat="56.207256" lon="10.131257"><ele>30</ele></trkpt>
   <trkpt lat="56.207292" lon="10.131291"><ele>29.75</ele></trkpt>
   <trkpt lat="56.207353" lon="10.131458"><ele>29.5</ele></trkpt>
   <trkpt lat="56.20738" lon="10.131538"><ele>29.5</ele></trkpt>
   <trkpt lat="56.207502" lon="10.131992"><ele>31</ele></trkpt>
   <trkpt lat="56.20777" lon="10.132959"><ele>33</ele></trkpt>
   <trkpt lat="56.207984" lon="10.13372"><ele>34.25</ele></trkpt>
   <trkpt lat="56.208081" lon="10.134012"><ele>34.5</ele></trkpt>
   <trkpt lat="56.208241" lon="10.134245"><ele>35.25</ele></trkpt>
   <trkpt lat="56.208391" lon="10.134424"><ele>36</ele></trkpt>
   <trkpt lat="56.208562" lon="10.134586"><ele>36.25</ele></trkpt>
   <trkpt lat="56.208667" lon="10.134667"><ele>36</ele></trkpt>
   <trkpt lat="56.208818" lon="10.134732"><ele>35.75</ele></trkpt>
   <trkpt lat="56.209837" lon="10.134879"><ele>30.25</ele></trkpt>
   <trkpt lat="56.21032" lon="10.13501"><ele>28.5</ele></trkpt>
   <trkpt lat="56.210733" lon="10.135177"><ele>24.5</ele></trkpt>
   <trkpt lat="56.210969" lon="10.135318"><ele>24</ele></trkpt>
   <trkpt lat="56.211059" lon="10.135357"><ele>24</ele></trkpt>
   <trkpt lat="56.211202" lon="10.135408"><ele>23.75</ele></trkpt>
   <trkpt lat="56.211437" lon="10.135477"><ele>23.75</ele></trkpt>
   <trkpt lat="56.211524" lon="10.135532"><ele>24.25</ele></trkpt>
   <trkpt lat="56.211605" lon="10.135615"><ele>24.5</ele></trkpt>
   <trkpt lat="56.211697" lon="10.135814"><ele>25</ele></trkpt>
   <trkpt lat="56.211744" lon="10.135951"><ele>25.25</ele></trkpt>
   <trkpt lat="56.211812" lon="10.136052"><ele>25.75</ele></trkpt>
   <trkpt lat="56.211829" lon="10.136064"><ele>26</ele></trkpt>
   <trkpt lat="56.211872" lon="10.136095"><ele>26.25</ele></trkpt>
   <trkpt lat="56.211931" lon="10.136098"><ele>26.75</ele></trkpt>
   <trkpt lat="56.212104" lon="10.136019"><ele>28</ele></trkpt>
   <trkpt lat="56.212275" lon="10.136034"><ele>29.25</ele></trkpt>
   <trkpt lat="56.212517" lon="10.136079"><ele>31</ele></trkpt>
   <trkpt lat="56.21269" lon="10.136149"><ele>32.5</ele></trkpt>
   <trkpt lat="56.212841" lon="10.136262"><ele>33.75</ele></trkpt>
   <trkpt lat="56.213582" lon="10.136922"><ele>38.75</ele></trkpt>
   <trkpt lat="56.214362" lon="10.137705"><ele>41.5</ele></trkpt>
   <trkpt lat="56.21454" lon="10.137846"><ele>42</ele></trkpt>
   <trkpt lat="56.214913" lon="10.137922"><ele>43</ele></trkpt>
   <trkpt lat="56.215215" lon="10.138067"><ele>44.75</ele></trkpt>
   <trkpt lat="56.215256" lon="10.138098"><ele>45</ele></trkpt>
   <trkpt lat="56.215289" lon="10.138142"><ele>45.25</ele></trkpt>
   <trkpt lat="56.21531" lon="10.138199"><ele>45.5</ele></trkpt>
   <trkpt lat="56.215317" lon="10.13826"><ele>45.75</ele></trkpt>
   <trkpt lat="56.215304" lon="10.138342"><ele>46</ele></trkpt>
   <trkpt lat="56.215242" lon="10.138538"><ele>46.5</ele></trkpt>
   <trkpt lat="56.215238" lon="10.138594"><ele>46.75</ele></trkpt>
   <trkpt lat="56.215276" lon="10.138653"><ele>47</ele></trkpt>
   <trkpt lat="56.215229" lon="10.13878"><ele>47.25</ele></trkpt>
   <trkpt lat="56.215257" lon="10.138812"><ele>47.5</ele></trkpt>
   <trkpt lat="56.215281" lon="10.13884"><ele>47.75</ele></trkpt>
   <trkpt lat="56.215366" lon="10.138934"><ele>47.5</ele></trkpt>
   <trkpt lat="56.215395" lon="10.138848"><ele>47.25</ele></trkpt>
   <trkpt lat="56.215426" lon="10.138754"><ele>47</ele></trkpt>
   <trkpt lat="56.215504" lon="10.138523"><ele>46.75</ele></trkpt>
   <trkpt lat="56.215673" lon="10.13803"><ele>47.25</ele></trkpt>
   <trkpt lat="56.215809" lon="10.137638"><ele>47.25</ele></trkpt>
   <trkpt lat="56.215945" lon="10.137185"><ele>47.75</ele></trkpt>
   <trkpt lat="56.216059" lon="10.136708"><ele>46.5</ele></trkpt>
   <trkpt lat="56.21673" lon="10.134904"><ele>46.25</ele></trkpt>
   <trkpt lat="56.217582" lon="10.132799"><ele>45</ele></trkpt>
   <trkpt lat="56.218059" lon="10.131712"><ele>44.75</ele></trkpt>
   <trkpt lat="56.218541" lon="10.130837"><ele>43</ele></trkpt>
   <trkpt lat="56.218704" lon="10.130518"><ele>42.75</ele></trkpt>
   <trkpt lat="56.219085" lon="10.129743"><ele>43</ele></trkpt>
   <trkpt lat="56.21917" lon="10.129564"><ele>42.75</ele></trkpt>
   <trkpt lat="56.219227" lon="10.129444"><ele>42.75</ele></trkpt>
   <trkpt lat="56.219327" lon="10.129256"><ele>42.75</ele></trkpt>
   <trkpt lat="56.221093" lon="10.125956"><ele>37</ele></trkpt>
   <trkpt lat="56.221591" lon="10.125213"><ele>38.5</ele></trkpt>
   <trkpt lat="56.222047" lon="10.124678"><ele>40.5</ele></trkpt>
   <trkpt lat="56.222482" lon="10.124215"><ele>42.75</ele></trkpt>
   <trkpt lat="56.223199" lon="10.123407"><ele>48.75</ele></trkpt>
   <trkpt lat="56.223467" lon="10.123041"><ele>50.25</ele></trkpt>
   <trkpt lat="56.223613" lon="10.122787"><ele>51</ele></trkpt>
   <trkpt lat="56.223761" lon="10.122528"><ele>51.5</ele></trkpt>
   <trkpt lat="56.224055" lon="10.121926"><ele>53.5</ele></trkpt>
   <trkpt lat="56.224375" lon="10.121335"><ele>55.5</ele></trkpt>
   <trkpt lat="56.224818" lon="10.120426"><ele>57.75</ele></trkpt>
   <trkpt lat="56.225299" lon="10.119425"><ele>61</ele></trkpt>
   <trkpt lat="56.225796" lon="10.117877"><ele>65</ele></trkpt>
   <trkpt lat="56.226144" lon="10.116909"><ele>67</ele></trkpt>
   <trkpt lat="56.226512" lon="10.116105"><ele>68.75</ele></trkpt>
   <trkpt lat="56.226615" lon="10.115907"><ele>69</ele></trkpt>
   <trkpt lat="56.226927" lon="10.115442"><ele>69.5</ele></trkpt>
   <trkpt lat="56.227061" lon="10.115289"><ele>70</ele></trkpt>
   <trkpt lat="56.227124" lon="10.115218"><ele>70</ele></trkpt>
   <trkpt lat="56.22779" lon="10.114614"><ele>73</ele></trkpt>
   <trkpt lat="56.227976" lon="10.114425"><ele>73.5</ele></trkpt>
   <trkpt lat="56.228239" lon="10.114106"><ele>74</ele></trkpt>
   <trkpt lat="56.22841" lon="10.113866"><ele>74</ele></trkpt>
   <trkpt lat="56.22858" lon="10.113562"><ele>74.75</ele></trkpt>
   <trkpt lat="56.228674" lon="10.113378"><ele>75</ele></trkpt>
   <trkpt lat="56.228993" lon="10.112809"><ele>74.5</ele></trkpt>
   <trkpt lat="56.229312" lon="10.112211"><ele>75.25</ele></trkpt>
   <trkpt lat="56.229563" lon="10.111684"><ele>75.5</ele></trkpt>
   <trkpt lat="56.229661" lon="10.111457"><ele>75</ele></trkpt>
   <trkpt lat="56.22992" lon="10.110809"><ele>75</ele></trkpt>
   <trkpt lat="56.229928" lon="10.110785"><ele>75</ele></trkpt>
   <trkpt lat="56.230032" lon="10.110494"><ele>74.5</ele></trkpt>
   <trkpt lat="56.230089" lon="10.110549"><ele>74.5</ele></trkpt>
   <trkpt lat="56.230332" lon="10.109922"><ele>72.25</ele></trkpt>
   <trkpt lat="56.230401" lon="10.109656"><ele>71.75</ele></trkpt>
   <trkpt lat="56.230933" lon="10.10809"><ele>70</ele></trkpt>
   <trkpt lat="56.231557" lon="10.10611"><ele>66.25</ele></trkpt>
   <trkpt lat="56.231815" lon="10.105249"><ele>64.75</ele></trkpt>
   <trkpt lat="56.231927" lon="10.104897"><ele>64</ele></trkpt>
   <trkpt lat="56.232099" lon="10.104512"><ele>62.75</ele></trkpt>
   <trkpt lat="56.232423" lon="10.103501"><ele>62.25</ele></trkpt>
   <trkpt lat="56.232453" lon="10.103412"><ele>62</ele></trkpt>
   <trkpt lat="56.232463" lon="10.10338"><ele>62</ele></trkpt>
   <trkpt lat="56.23252" lon="10.103216"><ele>61.75</ele></trkpt>
   <trkpt lat="56.232557" lon="10.103079"><ele>61.75</ele></trkpt>
   <trkpt lat="56.232598" lon="10.10294"><ele>62</ele></trkpt>
   <trkpt lat="56.232711" lon="10.102555"><ele>62</ele></trkpt>
   <trkpt lat="56.232825" lon="10.101922"><ele>61.75</ele></trkpt>
   <trkpt lat="56.232986" lon="10.101159"><ele>61.25</ele></trkpt>
   <trkpt lat="56.233867" lon="10.098295"><ele>61</ele></trkpt>
   <trkpt lat="56.233914" lon="10.098177"><ele>60.75</ele></trkpt>
   <trkpt lat="56.234007" lon="10.097942"><ele>60.5</ele></trkpt>
   <trkpt lat="56.234078" lon="10.09771"><ele>60.25</ele></trkpt>
   <trkpt lat="56.234214" lon="10.097149"><ele>59.75</ele></trkpt>
   <trkpt lat="56.234358" lon="10.096704"><ele>59.25</ele></trkpt>
   <trkpt lat="56.234575" lon="10.096067"><ele>59.25</ele></trkpt>
   <trkpt lat="56.234976" lon="10.095079"><ele>58.5</ele></trkpt>
   <trkpt lat="56.235185" lon="10.094654"><ele>58.25</ele></trkpt>
   <trkpt lat="56.235468" lon="10.094113"><ele>58.25</ele></trkpt>
   <trkpt lat="56.23569" lon="10.093666"><ele>56.5</ele></trkpt>
   <trkpt lat="56.236064" lon="10.09291"><ele>54.75</ele></trkpt>
   <trkpt lat="56.236891" lon="10.091357"><ele>50</ele></trkpt>
   <trkpt lat="56.237261" lon="10.090696"><ele>48.75</ele></trkpt>
   <trkpt lat="56.237519" lon="10.090211"><ele>47</ele></trkpt>
   <trkpt lat="56.238211" lon="10.088927"><ele>47</ele></trkpt>
   <trkpt lat="56.238291" lon="10.088777"><ele>47</ele></trkpt>
   <trkpt lat="56.238422" lon="10.088512"><ele>46.25</ele></trkpt>
   <trkpt lat="56.238802" lon="10.087723"><ele>48</ele></trkpt>
   <trkpt lat="56.239942" lon="10.085556"><ele>49</ele></trkpt>
   <trkpt lat="56.240342" lon="10.084952"><ele>48</ele></trkpt>
   <trkpt lat="56.240449" lon="10.08473"><ele>48</ele></trkpt>
   <trkpt lat="56.240498" lon="10.084624"><ele>47.25</ele></trkpt>
   <trkpt lat="56.240573" lon="10.084449"><ele>47</ele></trkpt>
   <trkpt lat="56.240765" lon="10.084066"><ele>46.5</ele></trkpt>
   <trkpt lat="56.241213" lon="10.083134"><ele>44.5</ele></trkpt>
   <trkpt lat="56.242762" lon="10.080211"><ele>39</ele></trkpt>
   <trkpt lat="56.243143" lon="10.079481"><ele>40.25</ele></trkpt>
   <trkpt lat="56.243394" lon="10.079026"><ele>39.25</ele></trkpt>
   <trkpt lat="56.243891" lon="10.078192"><ele>39.25</ele></trkpt>
   <trkpt lat="56.243926" lon="10.078122"><ele>39</ele></trkpt>
   <trkpt lat="56.243946" lon="10.078083"><ele>39</ele></trkpt>
   <trkpt lat="56.244018" lon="10.077942"><ele>38.75</ele></trkpt>
   <trkpt lat="56.244093" lon="10.0778"><ele>38.25</ele></trkpt>
   <trkpt lat="56.244148" lon="10.077673"><ele>38.25</ele></trkpt>
   <trkpt lat="56.244425" lon="10.077139"><ele>37.75</ele></trkpt>
   <trkpt lat="56.244515" lon="10.07689"><ele>38.25</ele></trkpt>
   <trkpt lat="56.244936" lon="10.076101"><ele>37.75</ele></trkpt>
   <trkpt lat="56.245388" lon="10.075254"><ele>38.25</ele></trkpt>
   <trkpt lat="56.246029" lon="10.074023"><ele>37.25</ele></trkpt>
   <trkpt lat="56.246467" lon="10.073226"><ele>36.25</ele></trkpt>
   <trkpt lat="56.246642" lon="10.07296"><ele>36.5</ele></trkpt>
   <trkpt lat="56.246937" lon="10.072558"><ele>35.75</ele></trkpt>
   <trkpt lat="56.247334" lon="10.0721"><ele>35.5</ele></trkpt>
   <trkpt lat="56.247568" lon="10.071876"><ele>35</ele></trkpt>
   <trkpt lat="56.247866" lon="10.071646"><ele>35</ele></trkpt>
   <trkpt lat="56.248179" lon="10.071443"><ele>35</ele></trkpt>
   <trkpt lat="56.248336" lon="10.071357"><ele>34.75</ele></trkpt>
   <trkpt lat="56.24852" lon="10.071316"><ele>34.75</ele></trkpt>
   <trkpt lat="56.248749" lon="10.071222"><ele>34.25</ele></trkpt>
   <trkpt lat="56.248802" lon="10.0712"><ele>34.25</ele></trkpt>
   <trkpt lat="56.24883" lon="10.071189"><ele>34.25</ele></trkpt>
   <trkpt lat="56.248917" lon="10.071144"><ele>34</ele></trkpt>
   <trkpt lat="56.249009" lon="10.071097"><ele>34</ele></trkpt>
   <trkpt lat="56.249162" lon="10.071017"><ele>34</ele></trkpt>
   <trkpt lat="56.249361" lon="10.070869"><ele>34</ele></trkpt>
   <trkpt lat="56.249369" lon="10.070864"><ele>34</ele></trkpt>
   <trkpt lat="56.249613" lon="10.070631"><ele>33.5</ele></trkpt>
   <trkpt lat="56.249913" lon="10.070398"><ele>34</ele></trkpt>
   <trkpt lat="56.250243" lon="10.070166"><ele>33.5</ele></trkpt>
   <trkpt lat="56.25209" lon="10.069094"><ele>32.75</ele></trkpt>
   <trkpt lat="56.252727" lon="10.068763"><ele>32.25</ele></trkpt>
   <trkpt lat="56.253351" lon="10.068508"><ele>32.25</ele></trkpt>
   <trkpt lat="56.253394" lon="10.068494"><ele>32.25</ele></trkpt>
   <trkpt lat="56.253433" lon="10.068532"><ele>32</ele></trkpt>
   <trkpt lat="56.253463" lon="10.068609"><ele>32</ele></trkpt>
   <trkpt lat="56.253516" lon="10.068967"><ele>32</ele></trkpt>
   <trkpt lat="56.253565" lon="10.069197"><ele>32</ele></trkpt>
   <trkpt lat="56.253688" lon="10.069679"><ele>32</ele></trkpt>
   <trkpt lat="56.253746" lon="10.069902"><ele>32.25</ele></trkpt>
   <trkpt lat="56.253833" lon="10.070156"><ele>32.75</ele></trkpt>
   <trkpt lat="56.253947" lon="10.070404"><ele>33.25</ele></trkpt>
   <trkpt lat="56.254077" lon="10.070622"><ele>33.25</ele></trkpt>
   <trkpt lat="56.254238" lon="10.07084"><ele>33.75</ele></trkpt>
   <trkpt lat="56.254296" lon="10.070906"><ele>33.75</ele></trkpt>
   <trkpt lat="56.254399" lon="10.070995"><ele>34</ele></trkpt>
   <trkpt lat="56.254572" lon="10.0711"><ele>34.25</ele></trkpt>
   <trkpt lat="56.254712" lon="10.07116"><ele>34</ele></trkpt>
   <trkpt lat="56.254778" lon="10.071182"><ele>34.25</ele></trkpt>
   <trkpt lat="56.254864" lon="10.071202"><ele>34.5</ele></trkpt>
   <trkpt lat="56.255032" lon="10.071204"><ele>35</ele></trkpt>
   <trkpt lat="56.255387" lon="10.071159"><ele>35.25</ele></trkpt>
   <trkpt lat="56.256289" lon="10.071025"><ele>36</ele></trkpt>
   <trkpt lat="56.257193" lon="10.070866"><ele>36</ele></trkpt>
   <trkpt lat="56.259171" lon="10.07055"><ele>36.75</ele></trkpt>
   <trkpt lat="56.25945" lon="10.070452"><ele>37</ele></trkpt>
   <trkpt lat="56.259639" lon="10.070378"><ele>37.5</ele></trkpt>
   <trkpt lat="56.259749" lon="10.070321"><ele>37.25</ele></trkpt>
   <trkpt lat="56.259863" lon="10.070262"><ele>36.75</ele></trkpt>
   <trkpt lat="56.259912" lon="10.070233"><ele>36.75</ele></trkpt>
   <trkpt lat="56.259987" lon="10.070189"><ele>36.75</ele></trkpt>
   <trkpt lat="56.260159" lon="10.070095"><ele>37.5</ele></trkpt>
   <trkpt lat="56.260193" lon="10.070069"><ele>37.5</ele></trkpt>
   <trkpt lat="56.260373" lon="10.069921"><ele>37</ele></trkpt>
   <trkpt lat="56.260718" lon="10.069611"><ele>37</ele></trkpt>
   <trkpt lat="56.261156" lon="10.06912"><ele>35.25</ele></trkpt>
   <trkpt lat="56.261386" lon="10.068817"><ele>34.25</ele></trkpt>
   <trkpt lat="56.26156" lon="10.068557"><ele>35</ele></trkpt>
   <trkpt lat="56.26188" lon="10.06798"><ele>32.75</ele></trkpt>
   <trkpt lat="56.262045" lon="10.067646"><ele>32</ele></trkpt>
   <trkpt lat="56.262243" lon="10.067193"><ele>30.75</ele></trkpt>
   <trkpt lat="56.26237" lon="10.066846"><ele>29.5</ele></trkpt>
   <trkpt lat="56.262498" lon="10.066462"><ele>29.5</ele></trkpt>
   <trkpt lat="56.262726" lon="10.065628"><ele>28.25</ele></trkpt>
   <trkpt lat="56.262808" lon="10.065267"><ele>29.5</ele></trkpt>
   <trkpt lat="56.262887" lon="10.064839"><ele>29.25</ele></trkpt>
   <trkpt lat="56.262921" lon="10.064578"><ele>29</ele></trkpt>
   <trkpt lat="56.262891" lon="10.06446"><ele>28.75</ele></trkpt>
   <trkpt lat="56.262965" lon="10.063947"><ele>29.5</ele></trkpt>
   <trkpt lat="56.263055" lon="10.063442"><ele>30</ele></trkpt>
   <trkpt lat="56.263082" lon="10.063291"><ele>30</ele></trkpt>
   <trkpt lat="56.263165" lon="10.062855"><ele>30.25</ele></trkpt>
   <trkpt lat="56.263169" lon="10.062831"><ele>30.25</ele></trkpt>
   <trkpt lat="56.263206" lon="10.062628"><ele>30.75</ele></trkpt>
   <trkpt lat="56.263284" lon="10.0622"><ele>31</ele></trkpt>
   <trkpt lat="56.263367" lon="10.061743"><ele>31</ele></trkpt>
   <trkpt lat="56.263418" lon="10.061484"><ele>31</ele></trkpt>
   <trkpt lat="56.263444" lon="10.06136"><ele>30.75</ele></trkpt>
   <trkpt lat="56.263527" lon="10.060887"><ele>31</ele></trkpt>
   <trkpt lat="56.263593" lon="10.060764"><ele>31</ele></trkpt>
   <trkpt lat="56.263649" lon="10.060708"><ele>30.75</ele></trkpt>
   <trkpt lat="56.26378" lon="10.060612"><ele>30.5</ele></trkpt>
   <trkpt lat="56.263955" lon="10.060521"><ele>30</ele></trkpt>
   <trkpt lat="56.264057" lon="10.060506"><ele>30.5</ele></trkpt>
   <trkpt lat="56.264169" lon="10.060557"><ele>31</ele></trkpt>
   <trkpt lat="56.264524" lon="10.060872"><ele>31</ele></trkpt>
   <trkpt lat="56.264988" lon="10.061323"><ele>31</ele></trkpt>
   <trkpt lat="56.265565" lon="10.061882"><ele>31</ele></trkpt>
   <trkpt lat="56.265609" lon="10.061947"><ele>31</ele></trkpt>
   <trkpt lat="56.2656" lon="10.062007"><ele>31</ele></trkpt>
   <trkpt lat="56.265605" lon="10.062041"><ele>30.75</ele></trkpt>
   <trkpt lat="56.265627" lon="10.062085"><ele>31</ele></trkpt>
   <trkpt lat="56.265666" lon="10.062095"><ele>31</ele></trkpt>
   <trkpt lat="56.265683" lon="10.062082"><ele>31</ele></trkpt>
   <trkpt lat="56.265703" lon="10.062042"><ele>31</ele></trkpt>
   <trkpt lat="56.265802" lon="10.062074"><ele>31</ele></trkpt>
   <trkpt lat="56.265938" lon="10.062186"><ele>31</ele></trkpt>
   <trkpt lat="56.266066" lon="10.06232"><ele>31</ele></trkpt>
   <trkpt lat="56.266199" lon="10.062459"><ele>31</ele></trkpt>
   <trkpt lat="56.26633" lon="10.062596"><ele>30.75</ele></trkpt>
   <trkpt lat="56.266466" lon="10.062738"><ele>31</ele></trkpt>
   <trkpt lat="56.266621" lon="10.062901"><ele>31</ele></trkpt>
   <trkpt lat="56.267092" lon="10.063402"><ele>31</ele></trkpt>
   <trkpt lat="56.267446" lon="10.063804"><ele>31</ele></trkpt>
   <trkpt lat="56.268117" lon="10.06453"><ele>29.75</ele></trkpt>
   <trkpt lat="56.268436" lon="10.0649"><ele>30</ele></trkpt>
   <trkpt lat="56.268589" lon="10.06511"><ele>30</ele></trkpt>
   <trkpt lat="56.268719" lon="10.065324"><ele>30</ele></trkpt>
   <trkpt lat="56.268964" lon="10.06578"><ele>29</ele></trkpt>
   <trkpt lat="56.269107" lon="10.065902"><ele>28.75</ele></trkpt>
   <trkpt lat="56.2694" lon="10.066411"><ele>27.75</ele></trkpt>
   <trkpt lat="56.269484" lon="10.066507"><ele>27</ele></trkpt>
   <trkpt lat="56.269568" lon="10.066556"><ele>26.5</ele></trkpt>
   <trkpt lat="56.269641" lon="10.066572"><ele>26.25</ele></trkpt>
   <trkpt lat="56.26973" lon="10.066562"><ele>26.5</ele></trkpt>
   <trkpt lat="56.269812" lon="10.066518"><ele>27.5</ele></trkpt>
   <trkpt lat="56.269863" lon="10.066473"><ele>28</ele></trkpt>
   <trkpt lat="56.269991" lon="10.066304"><ele>29</ele></trkpt>
   <trkpt lat="56.270257" lon="10.065867"><ele>28</ele></trkpt>
   <trkpt lat="56.270361" lon="10.0658"><ele>28.75</ele></trkpt>
   <trkpt lat="56.270461" lon="10.065517"><ele>29.75</ele></trkpt>
   <trkpt lat="56.270491" lon="10.065435"><ele>29.75</ele></trkpt>
   <trkpt lat="56.270549" lon="10.06527"><ele>29</ele></trkpt>
   <trkpt lat="56.270604" lon="10.065331"><ele>29.25</ele></trkpt>
   <trkpt lat="56.270673" lon="10.065407"><ele>29.25</ele></trkpt>
   <trkpt lat="56.270695" lon="10.065431"><ele>29.25</ele></trkpt>
   <trkpt lat="56.270813" lon="10.065559"><ele>29</ele></trkpt>
   <trkpt lat="56.270991" lon="10.065733"><ele>29.75</ele></trkpt>
   <trkpt lat="56.271492" lon="10.066291"><ele>30</ele></trkpt>
   <trkpt lat="56.27183" lon="10.066659"><ele>30.5</ele></trkpt>
   <trkpt lat="56.271949" lon="10.066788"><ele>31</ele></trkpt>
   <trkpt lat="56.27197" lon="10.066811"><ele>31</ele></trkpt>
   <trkpt lat="56.272237" lon="10.067099"><ele>31</ele></trkpt>
   <trkpt lat="56.272307" lon="10.067175"><ele>31.25</ele></trkpt>
   <trkpt lat="56.27261" lon="10.067506"><ele>32</ele></trkpt>
   <trkpt lat="56.273024" lon="10.067916"><ele>32</ele></trkpt>
   <trkpt lat="56.273168" lon="10.068046"><ele>32.25</ele></trkpt>
   <trkpt lat="56.273436" lon="10.068309"><ele>33.25</ele></trkpt>
   <trkpt lat="56.273693" lon="10.068561"><ele>33.25</ele></trkpt>
   <trkpt lat="56.273984" lon="10.068846"><ele>34</ele></trkpt>
   <trkpt lat="56.274236" lon="10.069155"><ele>34</ele></trkpt>
   <trkpt lat="56.274417" lon="10.069417"><ele>34</ele></trkpt>
   <trkpt lat="56.274644" lon="10.069787"><ele>35.25</ele></trkpt>
   <trkpt lat="56.274917" lon="10.070339"><ele>35.25</ele></trkpt>
   <trkpt lat="56.275035" lon="10.070576"><ele>36</ele></trkpt>
   <trkpt lat="56.275094" lon="10.070692"><ele>36.5</ele></trkpt>
   <trkpt lat="56.275476" lon="10.071464"><ele>37.5</ele></trkpt>
   <trkpt lat="56.275492" lon="10.071436"><ele>40.5</ele></trkpt>
   <trkpt lat="56.275476" lon="10.071464"><ele>37.5</ele></trkpt>
   <trkpt lat="56.275644" lon="10.071808"><ele>37.5</ele></trkpt>
   <trkpt lat="56.275726" lon="10.072008"><ele>38</ele></trkpt>
   <trkpt lat="56.275776" lon="10.072178"><ele>37.75</ele></trkpt>
   <trkpt lat="56.275826" lon="10.072405"><ele>37.75</ele></trkpt>
   <trkpt lat="56.275893" lon="10.072869"><ele>36.5</ele></trkpt>
   <trkpt lat="56.275904" lon="10.073039"><ele>36.25</ele></trkpt>
   <trkpt lat="56.275909" lon="10.073115"><ele>36</ele></trkpt>
   <trkpt lat="56.275916" lon="10.073425"><ele>35.25</ele></trkpt>
   <trkpt lat="56.27593" lon="10.074418"><ele>33.25</ele></trkpt>
   <trkpt lat="56.27594" lon="10.075062"><ele>32.75</ele></trkpt>
   <trkpt lat="56.275951" lon="10.076047"><ele>31</ele></trkpt>
   <trkpt lat="56.275939" lon="10.076276"><ele>30.25</ele></trkpt>
   <trkpt lat="56.27591" lon="10.076481"><ele>29.5</ele></trkpt>
   <trkpt lat="56.275902" lon="10.076538"><ele>29.25</ele></trkpt>
   <trkpt lat="56.275866" lon="10.076678"><ele>28.25</ele></trkpt>
   <trkpt lat="56.27579" lon="10.076915"><ele>28</ele></trkpt>
   <trkpt lat="56.275688" lon="10.077151"><ele>26.75</ele></trkpt>
   <trkpt lat="56.275622" lon="10.077352"><ele>26</ele></trkpt>
   <trkpt lat="56.275587" lon="10.07733"><ele>26</ele></trkpt>
   <trkpt lat="56.27555" lon="10.077335"><ele>26</ele></trkpt>
   <trkpt lat="56.275518" lon="10.077367"><ele>26</ele></trkpt>
   <trkpt lat="56.275495" lon="10.077419"><ele>26</ele></trkpt>
   <trkpt lat="56.275486" lon="10.077484"><ele>26</ele></trkpt>
   <trkpt lat="56.275402" lon="10.077476"><ele>26</ele></trkpt>
   <trkpt lat="56.275292" lon="10.077517"><ele>25.75</ele></trkpt>
   <trkpt lat="56.275057" lon="10.07763"><ele>27.75</ele></trkpt>
   <trkpt lat="56.274961" lon="10.077678"><ele>27.75</ele></trkpt>
   <trkpt lat="56.274746" lon="10.077816"><ele>25</ele></trkpt>
   <trkpt lat="56.274477" lon="10.077989"><ele>24.75</ele></trkpt>
   <trkpt lat="56.27436" lon="10.0781"><ele>24.5</ele></trkpt>
   <trkpt lat="56.273923" lon="10.078688"><ele>24.75</ele></trkpt>
   <trkpt lat="56.273713" lon="10.078914"><ele>26</ele></trkpt>
   <trkpt lat="56.273604" lon="10.079005"><ele>27</ele></trkpt>
   <trkpt lat="56.273603" lon="10.079074"><ele>27</ele></trkpt>
   <trkpt lat="56.273602" lon="10.079649"><ele>26</ele></trkpt>
   <trkpt lat="56.273621" lon="10.079938"><ele>26</ele></trkpt>
   <trkpt lat="56.273635" lon="10.080067"><ele>26.5</ele></trkpt>
   <trkpt lat="56.273749" lon="10.081122"><ele>28.5</ele></trkpt>
   <trkpt lat="56.273775" lon="10.081409"><ele>28.25</ele></trkpt>
   <trkpt lat="56.273867" lon="10.082499"><ele>29</ele></trkpt>
   <trkpt lat="56.27389" lon="10.082772"><ele>28.75</ele></trkpt>
   <trkpt lat="56.274058" lon="10.084621"><ele>29</ele></trkpt>
   <trkpt lat="56.274057" lon="10.084984"><ele>29.5</ele></trkpt>
   <trkpt lat="56.274049" lon="10.085219"><ele>30.25</ele></trkpt>
   <trkpt lat="56.274011" lon="10.085503"><ele>31.5</ele></trkpt>
   <trkpt lat="56.273876" lon="10.085912"><ele>32</ele></trkpt>
   <trkpt lat="56.273787" lon="10.086078"><ele>33.5</ele></trkpt>
   <trkpt lat="56.273596" lon="10.086341"><ele>35.25</ele></trkpt>
   <trkpt lat="56.270812" lon="10.089258"><ele>44.75</ele></trkpt>
   <trkpt lat="56.270672" lon="10.08948"><ele>45</ele></trkpt>
   <trkpt lat="56.269965" lon="10.090991"><ele>47</ele></trkpt>
   <trkpt lat="56.269597" lon="10.092146"><ele>48.25</ele></trkpt>
   <trkpt lat="56.269535" lon="10.092433"><ele>49.5</ele></trkpt>
   <trkpt lat="56.269514" lon="10.092694"><ele>50.75</ele></trkpt>
   <trkpt lat="56.269494" lon="10.093508"><ele>53</ele></trkpt>
   <trkpt lat="56.269446" lon="10.094128"><ele>53.75</ele></trkpt>
   <trkpt lat="56.269438" lon="10.094333"><ele>54.5</ele></trkpt>
   <trkpt lat="56.269452" lon="10.094563"><ele>54.75</ele></trkpt>
   <trkpt lat="56.26946" lon="10.094692"><ele>54.75</ele></trkpt>
   <trkpt lat="56.269543" lon="10.095124"><ele>55.75</ele></trkpt>
   <trkpt lat="56.269581" lon="10.095442"><ele>56.5</ele></trkpt>
   <trkpt lat="56.26961" lon="10.095761"><ele>57.5</ele></trkpt>
   <trkpt lat="56.269616" lon="10.096181"><ele>57.75</ele></trkpt>
   <trkpt lat="56.269594" lon="10.096695"><ele>58.25</ele></trkpt>
   <trkpt lat="56.269529" lon="10.097496"><ele>58</ele></trkpt>
   <trkpt lat="56.269514" lon="10.097591"><ele>58</ele></trkpt>
   <trkpt lat="56.269485" lon="10.097774"><ele>58</ele></trkpt>
   <trkpt lat="56.269407" lon="10.098057"><ele>58</ele></trkpt>
   <trkpt lat="56.269304" lon="10.098324"><ele>58.75</ele></trkpt>
   <trkpt lat="56.269222" lon="10.098482"><ele>59</ele></trkpt>
   <trkpt lat="56.269179" lon="10.098548"><ele>58.75</ele></trkpt>
   <trkpt lat="56.269198" lon="10.098702"><ele>59.25</ele></trkpt>
   <trkpt lat="56.269192" lon="10.098883"><ele>59.75</ele></trkpt>
   <trkpt lat="56.269169" lon="10.099001"><ele>59.75</ele></trkpt>
   <trkpt lat="56.269018" lon="10.099762"><ele>61</ele></trkpt>
   <trkpt lat="56.268682" lon="10.101411"><ele>63</ele></trkpt>
   <trkpt lat="56.268637" lon="10.10166"><ele>63</ele></trkpt>
   <trkpt lat="56.268587" lon="10.101966"><ele>64</ele></trkpt>
   <trkpt lat="56.268523" lon="10.102509"><ele>65.25</ele></trkpt>
   <trkpt lat="56.268484" lon="10.102925"><ele>66</ele></trkpt>
   <trkpt lat="56.268484" lon="10.103144"><ele>66</ele></trkpt>
   <trkpt lat="56.268502" lon="10.103293"><ele>66</ele></trkpt>
   <trkpt lat="56.268523" lon="10.103349"><ele>66</ele></trkpt>
   <trkpt lat="56.268551" lon="10.103408"><ele>66</ele></trkpt>
   <trkpt lat="56.268538" lon="10.103456"><ele>66</ele></trkpt>
   <trkpt lat="56.268506" lon="10.103608"><ele>66</ele></trkpt>
   <trkpt lat="56.26851" lon="10.103737"><ele>66</ele></trkpt>
   <trkpt lat="56.268759" lon="10.104757"><ele>64.75</ele></trkpt>
   <trkpt lat="56.269058" lon="10.106018"><ele>63</ele></trkpt>
   <trkpt lat="56.269118" lon="10.10626"><ele>63</ele></trkpt>
   <trkpt lat="56.269409" lon="10.10744"><ele>63</ele></trkpt>
   <trkpt lat="56.26955" lon="10.108012"><ele>62.5</ele></trkpt>
   <trkpt lat="56.269854" lon="10.109245"><ele>62.75</ele></trkpt>
   <trkpt lat="56.269901" lon="10.109561"><ele>62</ele></trkpt>
   <trkpt lat="56.269913" lon="10.109872"><ele>62</ele></trkpt>
   <trkpt lat="56.269907" lon="10.110635"><ele>62</ele></trkpt>
   <trkpt lat="56.269933" lon="10.111087"><ele>62</ele></trkpt>
   <trkpt lat="56.270123" lon="10.113505"><ele>60.5</ele></trkpt>
   <trkpt lat="56.270168" lon="10.118544"><ele>60</ele></trkpt>
   <trkpt lat="56.270167" lon="10.120457"><ele>60</ele></trkpt>
   <trkpt lat="56.270193" lon="10.123848"><ele>59.75</ele></trkpt>
   <trkpt lat="56.270291" lon="10.125311"><ele>60</ele></trkpt>
   <trkpt lat="56.270382" lon="10.126761"><ele>60</ele></trkpt>
   <trkpt lat="56.270428" lon="10.127338"><ele>60</ele></trkpt>
   <trkpt lat="56.270603" lon="10.129696"><ele>57.75</ele></trkpt>
   <trkpt lat="56.270625" lon="10.13003"><ele>61</ele></trkpt>
   <trkpt lat="56.270657" lon="10.13053"><ele>60.75</ele></trkpt>
   <trkpt lat="56.270764" lon="10.132174"><ele>58</ele></trkpt>
   <trkpt lat="56.270791" lon="10.132803"><ele>58</ele></trkpt>
   <trkpt lat="56.270829" lon="10.133709"><ele>58</ele></trkpt>
   <trkpt lat="56.270843" lon="10.134176"><ele>58</ele></trkpt>
   <trkpt lat="56.270892" lon="10.135768"><ele>57.75</ele></trkpt>
   <trkpt lat="56.270926" lon="10.13687"><ele>58.5</ele></trkpt>
   <trkpt lat="56.27094" lon="10.13735"><ele>59</ele></trkpt>
   <trkpt lat="56.270945" lon="10.137495"><ele>59</ele></trkpt>
   <trkpt lat="56.271007" lon="10.13951"><ele>61</ele></trkpt>
   <trkpt lat="56.271025" lon="10.140128"><ele>61.25</ele></trkpt>
   <trkpt lat="56.271232" lon="10.146417"><ele>65.75</ele></trkpt>
   <trkpt lat="56.271213" lon="10.14695"><ele>64.75</ele></trkpt>
   <trkpt lat="56.270888" lon="10.15051"><ele>57.25</ele></trkpt>
   <trkpt lat="56.270888" lon="10.151073"><ele>56</ele></trkpt>
   <trkpt lat="56.270948" lon="10.151719"><ele>56</ele></trkpt>
   <trkpt lat="56.270953" lon="10.151752"><ele>56</ele></trkpt>
   <trkpt lat="56.269964" lon="10.151936"><ele>57</ele></trkpt>
   <trkpt lat="56.269842" lon="10.151906"><ele>57.5</ele></trkpt>
   <trkpt lat="56.269483" lon="10.151972"><ele>58</ele></trkpt>
   <trkpt lat="56.269213" lon="10.152062"><ele>58.25</ele></trkpt>
   <trkpt lat="56.265785" lon="10.152714"><ele>63.75</ele></trkpt>
   <trkpt lat="56.265629" lon="10.148486"><ele>63.5</ele></trkpt>
   <trkpt lat="56.26552" lon="10.145359"><ele>68</ele></trkpt>
   <trkpt lat="56.265629" lon="10.148486"><ele>63.5</ele></trkpt>
   <trkpt lat="56.265785" lon="10.152714"><ele>63.75</ele></trkpt>
   <trkpt lat="56.263392" lon="10.153175"><ele>68.25</ele></trkpt>
   <trkpt lat="56.26322" lon="10.153161"><ele>68.5</ele></trkpt>
   <trkpt lat="56.262849" lon="10.153227"><ele>69</ele></trkpt>
   <trkpt lat="56.262562" lon="10.153336"><ele>69</ele></trkpt>
   <trkpt lat="56.260981" lon="10.153622"><ele>71</ele></trkpt>
   <trkpt lat="56.259313" lon="10.153943"><ele>77.25</ele></trkpt>
   <trkpt lat="56.258836" lon="10.154023"><ele>79.5</ele></trkpt>
   <trkpt lat="56.258781" lon="10.154033"><ele>79.75</ele></trkpt>
   <trkpt lat="56.25799" lon="10.15418"><ele>83</ele></trkpt>
   <trkpt lat="56.256764" lon="10.154392"><ele>86.5</ele></trkpt>
   <trkpt lat="56.256696" lon="10.154404"><ele>86.75</ele></trkpt>
   <trkpt lat="56.255237" lon="10.154643"><ele>87.5</ele></trkpt>
   <trkpt lat="56.254847" lon="10.154709"><ele>87.75</ele></trkpt>
   <trkpt lat="56.254609" lon="10.154759"><ele>88</ele></trkpt>
   <trkpt lat="56.254325" lon="10.154798"><ele>88</ele></trkpt>
   <trkpt lat="56.252993" lon="10.155027"><ele>89</ele></trkpt>
   <trkpt lat="56.252828" lon="10.155015"><ele>89</ele></trkpt>
   <trkpt lat="56.252773" lon="10.155021"><ele>89</ele></trkpt>
   <trkpt lat="56.252609" lon="10.155053"><ele>89</ele></trkpt>
   <trkpt lat="56.252443" lon="10.155106"><ele>89</ele></trkpt>
   <trkpt lat="56.252278" lon="10.155182"><ele>89</ele></trkpt>
   <trkpt lat="56.251956" lon="10.155266"><ele>88</ele></trkpt>
   <trkpt lat="56.251751" lon="10.155282"><ele>88</ele></trkpt>
   <trkpt lat="56.251528" lon="10.155344"><ele>88</ele></trkpt>
   <trkpt lat="56.25136" lon="10.155397"><ele>87.75</ele></trkpt>
   <trkpt lat="56.251124" lon="10.155511"><ele>87</ele></trkpt>
   <trkpt lat="56.249542" lon="10.155966"><ele>81.75</ele></trkpt>
   <trkpt lat="56.248973" lon="10.156135"><ele>80.25</ele></trkpt>
   <trkpt lat="56.248064" lon="10.156393"><ele>80</ele></trkpt>
   <trkpt lat="56.242272" lon="10.158072"><ele>81.75</ele></trkpt>
   <trkpt lat="56.241149" lon="10.158375"><ele>82</ele></trkpt>
   <trkpt lat="56.240392" lon="10.158572"><ele>82.75</ele></trkpt>
   <trkpt lat="56.240318" lon="10.158591"><ele>82.75</ele></trkpt>
   <trkpt lat="56.240245" lon="10.158595"><ele>82.75</ele></trkpt>
   <trkpt lat="56.240162" lon="10.158596"><ele>82.75</ele></trkpt>
   <trkpt lat="56.239781" lon="10.1587"><ele>83</ele></trkpt>
   <trkpt lat="56.239458" lon="10.158827"><ele>83</ele></trkpt>
   <trkpt lat="56.238491" lon="10.159089"><ele>83.75</ele></trkpt>
   <trkpt lat="56.236242" lon="10.159694"><ele>83</ele></trkpt>
   <trkpt lat="56.22546" lon="10.162598"><ele>75.75</ele></trkpt>
   <trkpt lat="56.225149" lon="10.162631"><ele>75.25</ele></trkpt>
   <trkpt lat="56.224446" lon="10.1628"><ele>74</ele></trkpt>
   <trkpt lat="56.224429" lon="10.162803"><ele>73.75</ele></trkpt>
   <trkpt lat="56.224308" lon="10.162841"><ele>72.75</ele></trkpt>
   <trkpt lat="56.224123" lon="10.162891"><ele>72</ele></trkpt>
   <trkpt lat="56.223926" lon="10.162983"><ele>72.5</ele></trkpt>
   <trkpt lat="56.223673" lon="10.162992"><ele>71.75</ele></trkpt>
   <trkpt lat="56.223487" lon="10.16306"><ele>71</ele></trkpt>
   <trkpt lat="56.223313" lon="10.163191"><ele>70.75</ele></trkpt>
   <trkpt lat="56.223238" lon="10.163265"><ele>71</ele></trkpt>
   <trkpt lat="56.222952" lon="10.163425"><ele>70.75</ele></trkpt>
   <trkpt lat="56.222849" lon="10.163479"><ele>70.5</ele></trkpt>
   <trkpt lat="56.222442" lon="10.163775"><ele>69.75</ele></trkpt>
   <trkpt lat="56.22219" lon="10.163958"><ele>68.75</ele></trkpt>
   <trkpt lat="56.222173" lon="10.16397"><ele>68.75</ele></trkpt>
   <trkpt lat="56.222091" lon="10.164006"><ele>68.5</ele></trkpt>
   <trkpt lat="56.222032" lon="10.164033"><ele>68.25</ele></trkpt>
   <trkpt lat="56.221959" lon="10.164085"><ele>68</ele></trkpt>
   <trkpt lat="56.221933" lon="10.164104"><ele>67.75</ele></trkpt>
   <trkpt lat="56.221797" lon="10.16428"><ele>67.25</ele></trkpt>
   <trkpt lat="56.221426" lon="10.164571"><ele>66</ele></trkpt>
   <trkpt lat="56.221227" lon="10.164726"><ele>65.25</ele></trkpt>
   <trkpt lat="56.2207" lon="10.165148"><ele>63</ele></trkpt>
   <trkpt lat="56.220151" lon="10.165587"><ele>59.5</ele></trkpt>
   <trkpt lat="56.22007" lon="10.165649"><ele>59</ele></trkpt>
   <trkpt lat="56.218882" lon="10.166567"><ele>50.5</ele></trkpt>
   <trkpt lat="56.218776" lon="10.166648"><ele>50</ele></trkpt>
   <trkpt lat="56.218691" lon="10.166686"><ele>49.75</ele></trkpt>
   <trkpt lat="56.218425" lon="10.166837"><ele>48.25</ele></trkpt>
   <trkpt lat="56.218193" lon="10.167021"><ele>45.75</ele></trkpt>
   <trkpt lat="56.218143" lon="10.167066"><ele>45.25</ele></trkpt>
   <trkpt lat="56.218119" lon="10.166997"><ele>45.25</ele></trkpt>
   <trkpt lat="56.218042" lon="10.166756"><ele>45.5</ele></trkpt>
   <trkpt lat="56.217989" lon="10.166526"><ele>45.25</ele></trkpt>
   <trkpt lat="56.217906" lon="10.166236"><ele>45</ele></trkpt>
   <trkpt lat="56.217499" lon="10.16434"><ele>44.5</ele></trkpt>
   <trkpt lat="56.217493" lon="10.164309"><ele>44.75</ele></trkpt>
   <trkpt lat="56.217442" lon="10.164342"><ele>44.25</ele></trkpt>
   <trkpt lat="56.217422" lon="10.164354"><ele>44</ele></trkpt>
   <trkpt lat="56.21741" lon="10.164361"><ele>44</ele></trkpt>
   <trkpt lat="56.217389" lon="10.164395"><ele>43.75</ele></trkpt>
   <trkpt lat="56.217371" lon="10.164448"><ele>43.5</ele></trkpt>
   <trkpt lat="56.217356" lon="10.164497"><ele>43.25</ele></trkpt>
   <trkpt lat="56.217348" lon="10.164531"><ele>43.25</ele></trkpt>
   <trkpt lat="56.217334" lon="10.164584"><ele>43.25</ele></trkpt>
   <trkpt lat="56.217317" lon="10.164635"><ele>43.25</ele></trkpt>
   <trkpt lat="56.217292" lon="10.164674"><ele>43.25</ele></trkpt>
   <trkpt lat="56.217242" lon="10.164722"><ele>43</ele></trkpt>
   <trkpt lat="56.217186" lon="10.16473"><ele>42.75</ele></trkpt>
   <trkpt lat="56.217115" lon="10.164698"><ele>42.75</ele></trkpt>
   <trkpt lat="56.217069" lon="10.164692"><ele>42.75</ele></trkpt>
   <trkpt lat="56.216932" lon="10.164747"><ele>42.5</ele></trkpt>
   <trkpt lat="56.216628" lon="10.164869"><ele>40.25</ele></trkpt>
   <trkpt lat="56.216214" lon="10.165085"><ele>38</ele></trkpt>
   <trkpt lat="56.21599" lon="10.165166"><ele>36.25</ele></trkpt>
   <trkpt lat="56.2158" lon="10.165211"><ele>35</ele></trkpt>
   <trkpt lat="56.215607" lon="10.165234"><ele>33.5</ele></trkpt>
   <trkpt lat="56.215411" lon="10.165226"><ele>32.5</ele></trkpt>
   <trkpt lat="56.215236" lon="10.165203"><ele>31.75</ele></trkpt>
   <trkpt lat="56.215068" lon="10.165156"><ele>30.75</ele></trkpt>
   <trkpt lat="56.214875" lon="10.165081"><ele>30.25</ele></trkpt>
   <trkpt lat="56.214706" lon="10.164994"><ele>29.75</ele></trkpt>
   <trkpt lat="56.214536" lon="10.164889"><ele>28.25</ele></trkpt>
   <trkpt lat="56.214297" lon="10.164702"><ele>28.25</ele></trkpt>
   <trkpt lat="56.213863" lon="10.164313"><ele>28.5</ele></trkpt>
   <trkpt lat="56.213678" lon="10.164134"><ele>28.5</ele></trkpt>
   <trkpt lat="56.213505" lon="10.164025"><ele>28.75</ele></trkpt>
   <trkpt lat="56.213284" lon="10.163924"><ele>29</ele></trkpt>
   <trkpt lat="56.213182" lon="10.163891"><ele>29</ele></trkpt>
   <trkpt lat="56.212989" lon="10.163857"><ele>29.25</ele></trkpt>
   <trkpt lat="56.21289" lon="10.16386"><ele>29.25</ele></trkpt>
   <trkpt lat="56.212671" lon="10.16389"><ele>29.75</ele></trkpt>
   <trkpt lat="56.21262" lon="10.163897"><ele>29.75</ele></trkpt>
   <trkpt lat="56.212064" lon="10.163942"><ele>28.25</ele></trkpt>
   <trkpt lat="56.211624" lon="10.163964"><ele>26.5</ele></trkpt>
   <trkpt lat="56.211004" lon="10.164061"><ele>21.5</ele></trkpt>
   <trkpt lat="56.210656" lon="10.164172"><ele>22.75</ele></trkpt>
   <trkpt lat="56.210074" lon="10.164286"><ele>23.25</ele></trkpt>
   <trkpt lat="56.209431" lon="10.164494"><ele>24</ele></trkpt>
   <trkpt lat="56.20899" lon="10.164659"><ele>24.5</ele></trkpt>
   <trkpt lat="56.20859" lon="10.164822"><ele>25</ele></trkpt>
   <trkpt lat="56.208108" lon="10.165045"><ele>25.5</ele></trkpt>
   <trkpt lat="56.207686" lon="10.16526"><ele>26</ele></trkpt>
   <trkpt lat="56.207061" lon="10.16562"><ele>26.5</ele></trkpt>
   <trkpt lat="56.206575" lon="10.165931"><ele>26.75</ele></trkpt>
   <trkpt lat="56.20622" lon="10.166142"><ele>27.75</ele></trkpt>
   <trkpt lat="56.206047" lon="10.166231"><ele>27.25</ele></trkpt>
   <trkpt lat="56.205759" lon="10.166357"><ele>27.75</ele></trkpt>
   <trkpt lat="56.205419" lon="10.166471"><ele>27.75</ele></trkpt>
   <trkpt lat="56.205249" lon="10.166512"><ele>28</ele></trkpt>
   <trkpt lat="56.204962" lon="10.166558"><ele>28.25</ele></trkpt>
   <trkpt lat="56.204539" lon="10.166579"><ele>28</ele></trkpt>
   <trkpt lat="56.20413" lon="10.166543"><ele>28.75</ele></trkpt>
   <trkpt lat="56.203685" lon="10.166465"><ele>29.25</ele></trkpt>
   <trkpt lat="56.203661" lon="10.16646"><ele>29.5</ele></trkpt>
   <trkpt lat="56.200462" lon="10.16584"><ele>40.25</ele></trkpt>
   <trkpt lat="56.200316" lon="10.165816"><ele>41</ele></trkpt>
  </trkseg>
 </trk>
</gpx>